{
    "links": {
        "self": "http://www.neowsapp.com/rest/v1/neo/3698520?api_key=iIulBulltgU6a56xZRHN4H3l9WmuAYTsLGpBGhQ2"
    },
    "id": "3698520",
    "neo_reference_id": "3698520",
    "name": "(2014 HT197)",
    "designation": "2014 HT197",
    "nasa_jpl_url": "http://ssd.jpl.nasa.gov/sbdb.cgi?sstr=3698520",
    "absolute_magnitude_h": 28.7,
    "estimated_diameter": {
        "kilometers": {
            "estimated_diameter_min": 0.0048367649,
            "estimated_diameter_max": 0.0108153351
        },
        "meters": {
            "estimated_diameter_min": 4.8367648822,
            "estimated_diameter_max": 10.8153350678
        },
        "miles": {
            "estimated_diameter_min": 0.0030054254,
            "estimated_diameter_max": 0.0067203356
        },
        "feet": {
            "estimated_diameter_min": 15.8686516961,
            "estimated_diameter_max": 35.4833839037
        }
    },
    "is_potentially_hazardous_asteroid": false,
    "close_approach_data": [
        {
            "close_approach_date": "2014-05-04",
            "close_approach_date_full": "2014-May-04 04:01",
            "epoch_date_close_approach": 1399176060000,
            "relative_velocity": {
                "kilometers_per_second": "13.6123670524",
                "kilometers_per_hour": "49004.5213887628",
                "miles_per_hour": "30449.5038595898"
            },
            "miss_distance": {
                "astronomical": "0.015344533",
                "lunar": "5.969023337",
                "kilometers": "2295509.45294471",
                "miles": "1426363.432708598"
            },
            "orbiting_body": "Earth"
        }
    ],
    "orbital_data": {
        "orbit_id": "5",
        "orbit_determination_date": "2019-04-09 07:28:52",
        "first_observation_date": "2014-04-23",
        "last_observation_date": "2014-04-30",
        "data_arc_in_days": 7,
        "observations_used": 26,
        "orbit_uncertainty": "9",
        "minimum_orbit_intersection": ".00357086",
        "jupiter_tisserand_invariant": "3.370",
        "epoch_osculation": "2456773.5",
        "eccentricity": ".6068156971370737",
        "semi_major_axis": "2.233524565647715",
        "inclination": "2.068978682978352",
        "ascending_node_longitude": "39.55968702339923",
        "orbital_period": "1219.226874898685",
        "perihelion_distance": ".878186799271417",
        "perihelion_argument": "234.52088116",
        "aphelion_distance": "3.588862332024013",
        "perihelion_time": "2456817.953225401363",
        "mean_anomaly": "346.8743369474852",
        "mean_motion": ".2952690819171085",
        "equinox": "J2000",
        "orbit_class": {
            "orbit_class_type": "APO",
            "orbit_class_description": "Near-Earth asteroid orbits which cross the Earth’s orbit similar to that of 1862 Apollo",
            "orbit_class_range": "a (semi-major axis) > 1.0 AU; q (perihelion) < 1.017 AU"
        }
    },
    "is_sentry_object": false
}